{"type": "FeatureCollection", "features": [ {"type": "Feature", "properties": {"norad_id": 30914, "name": "FENGYUN 1C DEB", "group": "fengyun-1c-debris", "lat": -10.344330903272148, "lon": 52.3974531431202, "alt_km": 1584.1904799958065, "timestamp": "2025-12-16T13:52:37.803061+00:00", "meta": {"OBJECT_NAME": "FENGYUN 1C DEB", "OBJECT_ID": "1999-025AZC", "EPOCH": "2025-12-12T22:39:59.116608", "MEAN_MOTION": 13.08837049, "ECCENTRICITY": 0.05165148, "INCLINATION": 99.9823, "RA_OF_ASC_NODE": 230.8365, "ARG_OF_PERICENTER": 353.8635, "MEAN_ANOMALY": 5.6308, "EPHEMERIS_TYPE": 0, "CLASSIFICATION_TYPE": "U", "NORAD_CAT_ID": 30914, "ELEMENT_SET_NO": 999, "REV_AT_EPOCH": 59078, "BSTAR": 0.004351417, "MEAN_MOTION_DOT": 2.822e-05, "MEAN_MOTION_DDOT": 0}, "tle": {"line1": "1 30914U 99025AZC 25346.94443422  .00002822  00000+0  43514-2 0  9996", "line2": "2 30914  99.9823 230.8365 0516514 353.8635   5.6308 13.08837049590785"}}, "geometry": {"type": "Point", "coordinates": [52.3974531431202, -10.344330903272148]}}, {"type": "Feature", "properties": {"norad_id": 30915, "name": "FENGYUN 1C DEB", "group": "fengyun-1c-debris", "lat": 70.60904408404177, "lon": 40.25152841983245, "alt_km": 797.5740695915492, "timestamp": "2025-12-16T13:52:37.803073+00:00", "meta": {"OBJECT_NAME": "FENGYUN 1C DEB", "OBJECT_ID": "1999-025AZD", "EPOCH": "2025-12-15T15:37:45.289632", "MEAN_MOTION": 14.25063818, "ECCENTRICITY": 0.00537082, "INCLINATION": 98.9424, "RA_OF_ASC_NODE": 65.8806, "ARG_OF_PERICENTER": 160.0545, "MEAN_ANOMALY": 200.275, "EPHEMERIS_TYPE": 0, "CLASSIFICATION_TYPE": "U", "NORAD_CAT_ID": 30915, "ELEMENT_SET_NO": 999, "REV_AT_EPOCH": 96554, "BSTAR": 0.001172674, "MEAN_MOTION_DOT": 2.745e-05, "MEAN_MOTION_DDOT": 0}, "tle": {"line1": "1 30915U 99025AZD 25349.65121863  .00002745  00000+0  11727-2 0  9995", "line2": "2 30915  98.9424  65.8806 0053708 160.0545 200.2750 14.25063818965546"}}, "geometry": {"type": "Point", "coordinates": [40.25152841983245, 70.60904408404177]}}, {"type": "Feature", "properties": {"norad_id": 30916, "name": "FENGYUN 1C DEB", "group": "fengyun-1c-debris", "lat": -72.27515780186374, "lon": -158.81962110374116, "alt_km": 825.4890192208204, "timestamp": "2025-12-16T13:52:37.803085+00:00", "meta": {"OBJECT_NAME": "FENGYUN 1C DEB", "OBJECT_ID": "1999-025AZE", "EPOCH": "2025-12-15T02:53:02.433120", "MEAN_MOTION": 14.08806526, "ECCENTRICITY": 0.00629077, "INCLINATION": 99.0027, "RA_OF_ASC_NODE": 49.4608, "ARG_OF_PERICENTER": 251.5943, "MEAN_ANOMALY": 172.237, "EPHEMERIS_TYPE": 0, "CLASSIFICATION_TYPE": "U", "NORAD_CAT_ID": 30916, "ELEMENT_SET_NO": 999, "REV_AT_EPOCH": 95877, "BSTAR": 0.0011632163, "MEAN_MOTION_DOT": 1.999e-05, "MEAN_MOTION_DDOT": 0}, "tle": {"line1": "1 30916U 99025AZE 25349.12016705  .00001999  00000+0  11632-2 0  9991", "line2": "2 30916  99.0027  49.4608 0062907 251.5943 172.2370 14.08806526958770"}}, "geometry": {"type": "Point", "coordinates": [-158.81962110374116, -72.27515780186374]}}, {"type": "Feature", "properties": {"norad_id": 30918, "name": "FENGYUN 1C DEB", "group": "fengyun-1c-debris", "lat": 5.262719129139007, "lon": -76.75352753314944, "alt_km": 847.8670517959408, "timestamp": "2025-12-16T13:52:37.803095+00:00", "meta": {"OBJECT_NAME": "FENGYUN 1C DEB", "OBJECT_ID": "1999-025AZG", "EPOCH": "2025-12-15T20:26:49.193664", "MEAN_MOTION": 13.96834558, "ECCENTRICITY": 0.01579159, "INCLINATION": 98.4163, "RA_OF_ASC_NODE": 101.8, "ARG_OF_PERICENTER": 116.7211, "MEAN_ANOMALY": 6.2561, "EPHEMERIS_TYPE": 0, "CLASSIFICATION_TYPE": "U", "NORAD_CAT_ID": 30918, "ELEMENT_SET_NO": 999, "REV_AT_EPOCH": 95096, "BSTAR": 0.0010852514, "MEAN_MOTION_DOT": 1.639e-05, "MEAN_MOTION_DDOT": 0}, "tle": {"line1": "1 30918U 99025AZG 25349.85195826  .00001639  00000+0  10853-2 0  9990", "line2": "2 30918  98.4163 101.8000 0157915 116.7211   6.2561 13.96834558950962"}}, "geometry": {"type": "Point", "coordinates": [-76.75352753314944, 5.262719129139007]}}, {"type": "Feature", "properties": {"norad_id": 30920, "name": "FENGYUN 1C DEB", "group": "fengyun-1c-debris", "lat": -9.883838582902529, "lon": 133.44763446846224, "alt_km": 849.7765681704395, "timestamp": "2025-12-16T13:52:37.803105+00:00", "meta": {"OBJECT_NAME": "FENGYUN 1C DEB", "OBJECT_ID": "1999-025AZJ", "EPOCH": "2025-12-15T02:19:41.447136", "MEAN_MOTION": 14.16667862, "ECCENTRICITY": 0.01092472, "INCLINATION": 98.9173, "RA_OF_ASC_NODE": 130.3958, "ARG_OF_PERICENTER": 91.5641, "MEAN_ANOMALY": 269.805, "EPHEMERIS_TYPE": 0, "CLASSIFICATION_TYPE": "U", "NORAD_CAT_ID": 30920, "ELEMENT_SET_NO": 999, "REV_AT_EPOCH": 95127, "BSTAR": 0.0022198765, "MEAN_MOTION_DOT": 4.658e-05, "MEAN_MOTION_DDOT": 0}, "tle": {"line1": "1 30920U 99025AZJ 25349.09700749  .00004658  00000+0  22199-2 0  9995", "line2": "2 30920  98.9173 130.3958 0109247  91.5641 269.8050 14.16667862951272"}}, "geometry": {"type": "Point", "coordinates": [133.44763446846224, -9.883838582902529]}}, {"type": "Feature", "properties": {"norad_id": 30921, "name": "FENGYUN 1C DEB", "group": "fengyun-1c-debris", "lat": 76.3834364372266, "lon": -61.87262503718574, "alt_km": 772.0418524338602, "timestamp": "2025-12-16T13:52:37.803115+00:00", "meta": {"OBJECT_NAME": "FENGYUN 1C DEB", "OBJECT_ID": "1999-025AZK", "EPOCH": "2025-12-15T19:33:33.084000", "MEAN_MOTION": 14.32764064, "ECCENTRICITY": 0.0016652, "INCLINATION": 98.8431, "RA_OF_ASC_NODE": 77.3564, "ARG_OF_PERICENTER": 28.1025, "MEAN_ANOMALY": 97.5138, "EPHEMERIS_TYPE": 0, "CLASSIFICATION_TYPE": "U", "NORAD_CAT_ID": 30921, "ELEMENT_SET_NO": 999, "REV_AT_EPOCH": 96868, "BSTAR": 0.0011755528, "MEAN_MOTION_DOT": 3.162e-05, "MEAN_MOTION_DDOT": 0}, "tle": {"line1": "1 30921U 99025AZK 25349.81496625  .00003162  00000+0  11756-2 0  9997", "line2": "2 30921  98.8431  77.3564 0016652  28.1025  97.5138 14.32764064968687"}}, "geometry": {"type": "Point", "coordinates": [-61.87262503718574, 76.3834364372266]}}, {"type": "Feature", "properties": {"norad_id": 30922, "name": "FENGYUN 1C DEB", "group": "fengyun-1c-debris", "lat": -14.667087297748363, "lon": -175.96390193130878, "alt_km": 847.7074744430311, "timestamp": "2025-12-16T13:52:37.803125+00:00", "meta": {"OBJECT_NAME": "FENGYUN 1C DEB", "OBJECT_ID": "1999-025AZL", "EPOCH": "2025-12-15T19:09:49.652640", "MEAN_MOTION": 14.17466931, "ECCENTRICITY": 0.00144716, "INCLINATION": 98.6401, "RA_OF_ASC_NODE": 5.5588, "ARG_OF_PERICENTER": 45.4712, "MEAN_ANOMALY": 132.5725, "EPHEMERIS_TYPE": 0, "CLASSIFICATION_TYPE": "U", "NORAD_CAT_ID": 30922, "ELEMENT_SET_NO": 999, "REV_AT_EPOCH": 96607, "BSTAR": 0.00061520375, "MEAN_MOTION_DOT": 1.206e-05, "MEAN_MOTION_DDOT": 0}, "tle": {"line1": "1 30922U 99025AZL 25349.79849135  .00001206  00000+0  61520-3 0  9995", "line2": "2 30922  98.6401   5.5588 0014471  45.4712 132.5725 14.17466931966072"}}, "geometry": {"type": "Point", "coordinates": [-175.96390193130878, -14.667087297748363]}}, {"type": "Feature", "properties": {"norad_id": 30925, "name": "FENGYUN 1C DEB", "group": "fengyun-1c-debris", "lat": -43.571069043889, "lon": 131.07672304937492, "alt_km": 754.3664188236871, "timestamp": "2025-12-16T13:52:37.803137+00:00", "meta": {"OBJECT_NAME": "FENGYUN 1C DEB", "OBJECT_ID": "1999-025AZP", "EPOCH": "2025-12-15T20:30:10.349280", "MEAN_MOTION": 14.43176886, "ECCENTRICITY": 0.00332807, "INCLINATION": 98.882, "RA_OF_ASC_NODE": 121.7671, "ARG_OF_PERICENTER": 228.4491, "MEAN_ANOMALY": 288.0412, "EPHEMERIS_TYPE": 0, "CLASSIFICATION_TYPE": "U", "NORAD_CAT_ID": 30925, "ELEMENT_SET_NO": 999, "REV_AT_EPOCH": 97117, "BSTAR": 0.0016134552, "MEAN_MOTION_DOT": 5.414e-05, "MEAN_MOTION_DDOT": 0}, "tle": {"line1": "1 30925U 99025AZP 25349.85428645  .00005414  00000+0  16135-2 0  9990", "line2": "2 30925  98.8820 121.7671 0033280 228.4491 288.0412 14.43176886971175"}}, "geometry": {"type": "Point", "coordinates": [131.07672304937492, -43.571069043889]}}, {"type": "Feature", "properties": {"norad_id": 30926, "name": "FENGYUN 1C DEB", "group": "fengyun-1c-debris", "lat": 21.21419634101128, "lon": -71.7004399397047, "alt_km": 486.7152363717005, "timestamp": "2025-12-16T13:52:37.803147+00:00", "meta": {"OBJECT_NAME": "FENGYUN 1C DEB", "OBJECT_ID": "1999-025AZQ", "EPOCH": "2025-12-15T18:26:10.589568", "MEAN_MOTION": 14.89394922, "ECCENTRICITY": 0.0165459, "INCLINATION": 98.8022, "RA_OF_ASC_NODE": 290.847, "ARG_OF_PERICENTER": 12.0458, "MEAN_ANOMALY": 348.4638, "EPHEMERIS_TYPE": 0, "CLASSIFICATION_TYPE": "U", "NORAD_CAT_ID": 30926, "ELEMENT_SET_NO": 999, "REV_AT_EPOCH": 812, "BSTAR": 0.00045531337, "MEAN_MOTION_DOT": 5.519e-05, "MEAN_MOTION_DDOT": 0}, "tle": {"line1": "1 30926U 99025AZQ 25349.76817812  .00005519  00000+0  45531-3 0  9998", "line2": "2 30926  98.8022 290.8470 0165459  12.0458 348.4638 14.89394922  8129"}}, "geometry": {"type": "Point", "coordinates": [-71.7004399397047, 21.21419634101128]}}, {"type": "Feature", "properties": {"norad_id": 30927, "name": "FENGYUN 1C DEB", "group": "fengyun-1c-debris", "lat": -8.97286247306834, "lon": -130.34275905188562, "alt_km": 935.818728516173, "timestamp": "2025-12-16T13:52:37.803157+00:00", "meta": {"OBJECT_NAME": "FENGYUN 1C DEB", "OBJECT_ID": "1999-025AZR", "EPOCH": "2025-12-15T21:38:35.024928", "MEAN_MOTION": 14.08997567, "ECCENTRICITY": 0.00982696, "INCLINATION": 99.1827, "RA_OF_ASC_NODE": 50.4318, "ARG_OF_PERICENTER": 356.9764, "MEAN_ANOMALY": 3.0799, "EPHEMERIS_TYPE": 0, "CLASSIFICATION_TYPE": "U", "NORAD_CAT_ID": 30927, "ELEMENT_SET_NO": 999, "REV_AT_EPOCH": 95728, "BSTAR": 0.0013118392, "MEAN_MOTION_DOT": 2.329e-05, "MEAN_MOTION_DDOT": 0}, "tle": {"line1": "1 30927U 99025AZR 25349.90179427  .00002329  00000+0  13118-2 0  9999", "line2": "2 30927  99.1827  50.4318 0098269 356.9764   3.0799 14.08997567957289"}}, "geometry": {"type": "Point", "coordinates": [-130.34275905188562, -8.97286247306834]}}]}